FLOCK 4G-13             
1 62621U 25009N   26068.70638971  .00053076  00000+0  16695-2 0  9995
2 62621  97.4019 151.0918 0003801 292.7207  67.3633 15.32770015 63700
STARLINK-34421          
1 64459U 25130X   26057.59937725  .00029133  00000+0  99213-3 0  9990
2 64459  53.1579 140.1444 0001089  89.4709 270.6416 15.30192148 39005
